STARLINK-1626
1 46167U 20057BC  26090.91671296  .00119857  00000+0  14545-2 0  9997
2 46167  53.0454 186.4985 0002822 285.0478 175.3148 15.59745986  5616
